SL-16 R/B               
1 24298U 96051B   26177.73363694  .00000115  00000+0  88926-4 0  9993
2 24298  70.7651 304.4449 0016289 323.1111  36.8887 14.12449162537042
ORBVIEW 2 (SEASTAR)     
1 24883U 97037A   26177.70815258  .00000238  00000+0  98977-4 0  9996
2 24883  98.8695 344.9913 0003331  97.3711 262.7852 14.35557918524116
SL-16 R/B               
1 25400U 98043G   26177.76468985  .00000027  00000+0  30389-4 0  9996
2 25400  98.8368 132.0065 0010840  61.4471 298.7798 14.26070052454536
SL-16 R/B               
1 25407U 98045B   26177.70066416  .00000224  00000+0  13725-3 0  9995
2 25407  71.0120 312.3215 0008961 229.3491 130.6854 14.16203634442537
ISS (ZARYA)             
1 25544U 98067A   26177.47752734  .00007960  00000+0  15019-3 0  9992
2 25544  51.6324 254.1054 0004309 234.2414 125.8174 15.49438531573196
CZ-4B R/B               
1 25732U 99025C   26177.74209839  .00000053  00000+0  46183-4 0  9992
2 25732  98.6480 219.3400 0037689  32.7530  77.2079 14.18284917403620
OKEAN-O                 
1 25860U 99039A   26177.74216110  .00000562  00000+0  80317-4 0  9991
2 25860  97.9312 236.4303 0001312  70.0844 290.0509 14.80477899450523
SL-16 R/B               
1 25861U 99039B   26177.75505480  .00000448  00000+0  63397-4 0  9996
2 25861  97.9834 236.5907 0013384 262.7111  97.2580 14.81853652453012
DELTA 2 R/B             
1 25876U 99041E   26177.58933764  .00000912  00000+0  18479-3 0  9992
2 25876  51.7631 226.2369 0500978 309.8078  45.9753 14.12030431378412
HELIOS 1B               
1 25977U 99064A   26177.45837273  .00001288  00000+0  14662-3 0  9990
2 25977  98.1608  82.8662 0002508  78.7330 281.4167 14.88029296701432
TERRA                   
1 25994U 99068A   26177.62404847  .00000349  00000+0  79902-4 0  9995
2 25994  97.9452 226.7960 0002327 162.1758 358.8950 14.61109889410980
SL-16 R/B               
1 26070U 00006B   26177.60303902  .00000297  00000+0  17513-3 0  9994
2 26070  71.0014 228.8271 0016130   8.2580 351.8805 14.15838349363978
TITAN 4B R/B            
1 26474U 00047B   26177.72971985  .00002824  00000+0  17638-3 0  9998
2 26474  67.9893  93.7125 0045920 277.3928  82.2004 15.10247766409370
ENVISAT                 
1 27386U 02009A   26177.65729764  .00000061  00000+0  33772-4 0  9998
2 27386  98.3838 128.7647 0001399  87.1849  85.9028 14.39066758274847
IDEFIX & ARIANE 42P R/B 
1 27422U 02021B   26177.77812767  .00000171  00000+0  81559-4 0  9990
2 27422  98.5942 115.1574 0010833 222.6139 137.4204 14.31086080259626
AQUA                    
1 27424U 02022A   26177.78218816  .00000715  00000+0  15191-3 0  9991
2 27424  98.4280 147.2569 0000779  66.6322  50.5612 14.62171443284673
CZ-4B R/B               
1 27432U 02024C   26177.72807941  .00000021  00000+0  33518-4 0  9993
2 27432  98.8696 230.4862 0051182  73.7050  36.1793 14.14565551244657
CZ-4B R/B               
1 28059U 03049C   26177.44557043  .00000274  00000+0  74447-4 0  9997
2 28059  98.6899 176.6608 0046894 259.6055  99.9854 14.55105647202413
SL-16 R/B               
1 28353U 04021B   26177.21243537  .00000090  00000+0  71354-4 0  9990
2 28353  71.0005   4.7473 0006880 243.1726 116.8693 14.14607280138186
CZ-2C R/B               
1 28480U 04046B   26177.72743601  .00000072  00000+0  42081-4 0  9996
2 28480  98.1938  85.9119 0139019 191.9143 167.8740 14.27028463124058
ARIANE 5 R/B            
1 28499U 04049H   26177.49323563  .00000508  00000+0  62463-4 0  9994
2 28499  98.2726 350.1058 0083811 359.3880   0.7217 14.85459240161947
CZ-2D R/B               
1 28738U 05024B   26177.33359557  .00067394  00000+0  54683-3 0  9999
2 28738  97.3478 197.2241 0001537  29.8867 330.2483 15.70539221156774
ALOS (DAICHI)           
1 28931U 06002A   26177.61966794  .00000982  00000+0  17177-3 0  9996
2 28931  98.1327 133.1578 0001119  60.1823 299.9494 14.70067551 89486
H-2A R/B                
1 28932U 06002B   26177.67776650  .00007207  00000+0  34532-3 0  9994
2 28932  98.2565 334.3664 0049816 229.2996 130.3902 15.18180112110960
RESURS-DK 1             
1 29228U 06021A   26177.68632978  .00002228  00000+0  13107-3 0  9992
2 29228  69.9338 314.9640 0006756 287.2265  72.8161 15.13253700104014
CZ-4B R/B               
1 29507U 06046C   26177.68029917  .00004222  00000+0  20950-3 0  9992
2 29507  97.5451 222.2578 0031090 248.0217 111.7712 15.17847702 76578
CZ-2C R/B               
1 31114U 07010B   26177.71135525  .00000053  00000+0  43451-4 0  9998
2 31114  98.4107 285.5968 0058446 338.3650  21.5059 14.20278049995191
