OBJECT_NAME,OBJECT_ID,EPOCH,MEAN_MOTION,ECCENTRICITY,INCLINATION,RA_OF_ASC_NODE,ARG_OF_PERICENTER,MEAN_ANOMALY,EPHEMERIS_TYPE,CLASSIFICATION_TYPE,NORAD_CAT_ID,ELEMENT_SET_NO,REV_AT_EPOCH,BSTAR,MEAN_MOTION_DOT,MEAN_MOTION_DDOT
SL-16 R/B,1996-051B,2026-06-26T17:36:26.231616,14.12449162,.0016289,70.7651,304.4449,323.1111,36.8887,0,U,24298,999,53704,.88926E-4,.115E-5,0
ORBVIEW 2 (SEASTAR),1997-037A,2026-06-26T16:59:44.382912,14.35557918,.0003331,98.8695,344.9913,97.3711,262.7852,0,U,24883,999,52411,.98977E-4,.238E-5,0
SL-16 R/B,1998-043G,2026-06-26T18:21:09.203040,14.26070052,.001084,98.8368,132.0065,61.4471,298.7798,0,U,25400,999,45453,.30389E-4,.27E-6,0
SL-16 R/B,1998-045B,2026-06-26T16:48:57.383424,14.16203634,.0008961,71.0120,312.3215,229.3491,130.6854,0,U,25407,999,44253,.13725E-3,.224E-5,0
ISS (ZARYA),1998-067A,2026-06-26T11:27:38.362176,15.49438531,.0004309,51.6324,254.1054,234.2414,125.8174,0,U,25544,999,57319,.15019E-3,.796E-4,0
CZ-4B R/B,1999-025C,2026-06-26T17:48:37.300896,14.18284917,.0037689,98.6480,219.3400,32.7530,77.2079,0,U,25732,999,40362,.46183E-4,.53E-6,0
OKEAN-O,1999-039A,2026-06-26T17:48:42.719040,14.80477899,.0001312,97.9312,236.4303,70.0844,290.0509,0,U,25860,999,45052,.80317E-4,.562E-5,0
SL-16 R/B,1999-039B,2026-06-26T18:07:16.734720,14.81853652,.0013384,97.9834,236.5907,262.7111,97.2580,0,U,25861,999,45301,.63397E-4,.448E-5,0
DELTA 2 R/B,1999-041E,2026-06-26T14:08:38.772096,14.12030431,.0500978,51.7631,226.2369,309.8078,45.9753,0,U,25876,999,37841,.18479E-3,.912E-5,0
HELIOS 1B,1999-064A,2026-06-26T11:00:03.403872,14.88029296,.00025085,98.1608,82.8662,78.7330,281.4167,0,U,25977,999,70143,.14661928E-3,.1288E-4,0
TERRA,1999-068A,2026-06-26T14:58:37.787808,14.61109889,.00023276,97.9452,226.7960,162.1758,358.8950,0,U,25994,999,41098,.79901811E-4,.349E-5,0
SL-16 R/B,2000-006B,2026-06-26T14:28:22.571328,14.15838349,.001613,71.0014,228.8271,8.2580,351.8805,0,U,26070,999,36397,.17513E-3,.297E-5,0
TITAN 4B R/B,2000-047B,2026-06-26T17:30:47.795040,15.10247766,.004592,67.9893,93.7125,277.3928,82.2004,0,U,26474,999,40937,.17638E-3,.2824E-4,0
ENVISAT,2002-009A,2026-06-26T15:46:30.516096,14.39066758,.0001399,98.3838,128.7647,87.1849,85.9028,0,U,27386,999,27484,.33772E-4,.61E-6,0
IDEFIX & ARIANE 42P R/B,2002-021B,2026-06-26T18:40:30.230688,14.31086080,.0010833,98.5942,115.1574,222.6139,137.4204,0,U,27422,999,25962,.81559E-4,.171E-5,0
AQUA,2002-022A,2026-06-26T18:46:21.057024,14.62171443,.0000779,98.4280,147.2569,66.6322,50.5612,0,U,27424,999,28467,.15191E-3,.715E-5,0
CZ-4B R/B,2002-024C,2026-06-26T17:28:26.061024,14.14565551,.0051182,98.8696,230.4862,73.7050,36.1793,0,U,27432,999,24465,.33518E-4,.21E-6,0
CZ-4B R/B,2003-049C,2026-06-26T10:41:37.285152,14.55105647,.0046894,98.6899,176.6608,259.6055,99.9854,0,U,28059,999,20241,.74447E-4,.274E-5,0
SL-16 R/B,2004-021B,2026-06-26T05:05:54.415968,14.14607280,.00068807,71.0005,4.7473,243.1726,116.8693,0,U,28353,999,13818,.71353702E-4,.9E-6,0
CZ-2C R/B,2004-046B,2026-06-26T17:27:30.471264,14.27028463,.0139019,98.1938,85.9119,191.9143,167.8740,0,U,28480,999,12405,.42081E-4,.72E-6,0
ARIANE 5 R/B,2004-049H,2026-06-26T11:50:15.558432,14.85459240,.0083811,98.2726,350.1058,359.3880,0.7217,0,U,28499,999,16194,.62463E-4,.508E-5,0
CZ-2D R/B,2005-024B,2026-06-26T08:00:22.657248,15.70539221,.00015378,97.3478,197.2241,29.8867,330.2483,0,U,28738,999,15677,.54683236E-3,.67394E-3,0
ALOS (DAICHI),2006-002A,2026-06-26T14:52:19.310016,14.70067551,.0001119,98.1327,133.1578,60.1823,299.9494,0,U,28931,999,8948,.17177E-3,.982E-5,0
H-2A R/B,2006-002B,2026-06-26T16:15:59.025600,15.18180112,.0049816,98.2565,334.3664,229.2996,130.3902,0,U,28932,999,11096,.34532E-3,.7207E-4,0
RESURS-DK 1,2006-021A,2026-06-26T16:28:18.892992,15.13253700,.0006756,69.9338,314.9640,287.2265,72.8161,0,U,29228,999,10401,.13107E-3,.2228E-4,0
CZ-4B R/B,2006-046C,2026-06-26T16:19:37.848288,15.17847702,.003109,97.5451,222.2578,248.0217,111.7712,0,U,29507,999,7657,.2095E-3,.4222E-4,0
CZ-2C R/B,2007-010B,2026-06-26T17:04:21.093600,14.20278049,.0058446,98.4107,285.5968,338.3650,21.5059,0,U,31114,999,99519,.43451E-4,.53E-6,0
